OBJECT_NAME,OBJECT_ID,EPOCH,MEAN_MOTION,ECCENTRICITY,INCLINATION,RA_OF_ASC_NODE,ARG_OF_PERICENTER,MEAN_ANOMALY,EPHEMERIS_TYPE,CLASSIFICATION_TYPE,NORAD_CAT_ID,ELEMENT_SET_NO,REV_AT_EPOCH,BSTAR,MEAN_MOTION_DOT,MEAN_MOTION_DDOT
SAR-LUPE 2,2007-030A,2026-06-14T05:56:32.258976,15.49548233,.00062765,98.1041,269.3163,144.2528,215.9142,0,U,31797,999,5648,.65362332E-3,.3609E-3,0
SAPPHIRE,2013-009C,2026-06-14T07:17:06.443520,14.35239802,.00100127,98.4258,344.8279,256.2214,103.7858,0,U,39088,999,69616,.48711575E-4,.96E-6,0
PRAETORIAN SDA_602,2025-203A,2026-06-14T06:39:40.199904,13.84342433,.00056172,81.3032,13.4643,192.1302,167.9720,0,U,65565,999,3829,.36034431E-4,.52E-6,0
PRAETORIAN SDA_603,2025-203B,2026-06-14T02:04:26.750208,13.83905023,.00091561,81.3039,13.5559,196.1172,163.9695,0,U,65566,999,3827,.11318856E-3,.137E-5,0
PRAETORIAN SDA_604,2025-203C,2026-06-14T02:30:04.226112,13.83047181,.00050986,81.3054,13.9469,200.4643,159.6309,0,U,65567,999,3825,.4335214E-4,.59E-6,0
PRAETORIAN SDA_605,2025-203D,2026-06-14T01:41:23.351424,13.83433926,.00079167,81.3019,13.6441,191.6432,168.4542,0,U,65568,999,3826,.34329811E-4,.5E-6,0
PRAETORIAN SDA_606,2025-203E,2026-06-14T06:28:36.778368,13.83407093,.00055641,81.3055,13.6801,188.9694,171.1364,0,U,65569,999,3828,.50157661E-4,.67E-6,0
PRAETORIAN SDA_607,2025-203F,2026-06-14T06:42:50.514912,13.84283778,.00084837,81.3039,13.3388,195.5134,164.5764,0,U,65570,999,3830,.91808228E-4,.114E-5,0
PRAETORIAN SDA_608,2025-203G,2026-06-14T02:40:38.892000,13.83816469,.00056102,81.3007,13.6550,199.6138,160.4804,0,U,65571,999,3826,.36556512E-4,.52E-6,0
PRAETORIAN SDA_609,2025-203H,2026-06-13T23:20:48.156576,13.84211998,.0006501,81.3050,13.7672,194.2923,165.8051,0,U,65572,999,3825,.13016246E-3,.157E-5,0
PRAETORIAN SDA_610,2025-203J,2026-06-14T02:11:36.461472,13.83851604,.000627,81.3008,13.6318,197.2387,162.8558,0,U,65573,999,3826,.30984255E-4,.46E-6,0
PRAETORIAN SDA_611,2025-203K,2026-06-14T02:10:59.083968,13.83308864,.00051464,81.3011,13.7960,203.8188,156.2730,0,U,65574,999,3825,-.93119275E-4,-.9E-6,0
PRAETORIAN SDA_612,2025-203L,2026-06-14T02:01:35.564160,13.85038853,.00088923,81.3028,13.3952,195.7360,164.3522,0,U,65575,999,3828,.17081072E-3,.205E-5,0
PRAETORIAN SDA_613,2025-203M,2026-06-14T02:18:56.764512,13.82764768,.0005382,81.3000,13.7848,192.6340,167.4682,0,U,65576,999,3825,.35683706E-4,.51E-6,0
PRAETORIAN SDA_614,2025-203N,2026-06-14T01:45:09.863712,13.84777824,.00068256,81.3015,13.4829,192.4726,167.6264,0,U,65577,999,3828,.18199882E-4,.32E-6,0
PRAETORIAN SDA_615,2025-203P,2026-06-14T06:22:59.171232,13.84436438,.00087458,81.3025,13.2659,193.3887,166.7039,0,U,65578,999,3830,.12292512E-3,.149E-5,0
PRAETORIAN SDA_616,2025-203Q,2026-06-14T02:09:43.164288,13.83267593,.00050347,81.3063,13.9392,201.6790,158.4154,0,U,65579,999,3825,.13868629E-3,.164E-5,0
PRAETORIAN SDA_617,2025-203R,2026-06-13T23:12:06.900192,13.83149851,.0007086,81.3037,13.8848,193.0606,167.0368,0,U,65580,999,3824,.17759349E-4,.31E-6,0
PRAETORIAN SDA_618,2025-203S,2026-06-14T02:06:42.132096,13.84669091,.000945,81.3021,13.3621,196.4959,163.5892,0,U,65581,999,3828,.98794223E-4,.123E-5,0
PRAETORIAN SDA_619,2025-203T,2026-06-14T06:23:55.037472,13.83805784,.00079224,81.3045,13.4885,193.8256,166.2685,0,U,65582,999,3892,.18485718E-3,.217E-5,0
PRAETORIAN SDA_620,2025-203U,2026-06-14T07:03:39.200544,13.83616988,.0007359,81.3031,13.4836,188.2383,171.8654,0,U,65583,999,3829,.18576505E-3,.217E-5,0
PRAETORIAN SDA_621,2025-203V,2026-06-14T01:14:06.219168,13.83800889,.00071856,81.3022,13.6273,187.2371,172.8683,0,U,65584,999,3826,.37517432E-4,.53E-6,0
PRAETORIAN SDA_601,2025-203W,2026-06-14T02:13:54.701472,13.83167414,.00050532,81.3039,13.8823,205.1481,154.9429,0,U,65585,999,3825,-.6139184E-4,-.55E-6,0
